STARLINK-1963           
1 47564U 21009S   24289.02498408  .00005088  00000+0  36025-3 0  9997
2 47564  53.0526 144.0767 0001889  89.5781 270.5425 15.06394993204574
STARLINK-1964           
1 47565U 21009T   24288.62321215  .00003734  00000+0  26946-3 0  9991
2 47565  53.0523 145.8836 0001112  78.5592 281.5522 15.06399485203902
STARLINK-1965           
1 47566U 21009U   24288.55039191 -.00002818  00000+0 -17015-3 0  9994
2 47566  53.0527 136.2117 0003171 107.8446 252.2889 15.06426333204033
STARLINK-1966           
1 47567U 21009V   24288.71997464 -.00001095  00000+0 -54608-4 0  9995
2 47567  53.0537 175.4492 0002023 105.5644 254.5568 15.06399731203495
STARLINK-1967           
1 47568U 21009W   24289.21020375  .00027154  00000+0  18352-2 0  9996
2 47568  53.0520 173.2514 0001195 120.6798 239.4309 15.06393049204184
STARLINK-1970           
1 47571U 21009Z   24288.91667824  .00000496  00000+0  45553-4 0  9997
2 47571  53.0526 144.4191 0001321  92.0166 178.1878 15.12107787  5736
STARLINK-1971           
1 47572U 21009AA  24288.33201874  .00001575  00000+0  12462-3 0  9994
2 47572  53.0530 147.1936 0002417 102.8856 257.2403 15.06413226203860
STARLINK-1975           
1 47573U 21009AB  24288.30990231  .00006452  00000+0  45154-3 0  9997
2 47573  53.0527 147.2910 0001205  99.8005 260.3120 15.06406212203852
STARLINK-1976           
1 47574U 21009AC  24288.72366029 -.00001822  00000+0 -10344-3 0  9997
2 47574  53.0548 175.4343 0002003  93.9086 266.2132 15.06397453203494
STARLINK-1977           
1 47575U 21009AD  24288.97799344  .00000023  00000+0  20473-4 0  9990
2 47575  53.0534 174.2943 0001448  88.9260 271.1895 15.06393501204136
STARLINK-1978           
1 47576U 21009AE  24289.01116349 -.00002044  00000+0 -11835-3 0  9993
2 47576  53.0524 134.1431 0001638  93.9688 266.1488 15.06391360204711
STARLINK-1979           
1 47577U 21009AF  24288.32234974  .00015023  00000+0  10247-2 0  9996
2 47577  53.0524 152.2335 0001101  65.1818 294.9285 15.06422074203795
STARLINK-1980           
1 47578U 21009AG  24288.91667824 -.00008598  00000+0 -47690-3 0  9990
2 47578  53.0525 154.4129 0001116  85.9838  12.6534 15.12120056  5840
STARLINK-1981           
1 47579U 21009AH  24289.02867994  .00006906  00000+0  48196-3 0  9995
2 47579  53.0532 144.0626 0000957  90.1175 269.9923 15.06406957204570
STARLINK-1982           
1 47580U 21009AJ  24288.51907336  .00007168  00000+0  49951-3 0  9996
2 47580  53.0535 156.3529 0001380 100.4080 259.7064 15.06409586203746
STARLINK-1984           
1 47581U 21009AK  24288.91667824  .00294046  00000+0  17866-2 0  9998
2 47581  53.0450  84.2232 0008285 297.0185 173.4993 15.76080672  6037
STARLINK-1986           
1 47582U 21009AL  24289.01667516 -.00000612  00000+0 -22177-4 0  9998
2 47582  53.0514 154.1182 0001488  93.2254 266.8906 15.06392631204429
STARLINK-1987           
1 47583U 21009AM  24288.33110444  .00008055  00000+0  55889-3 0  9998
2 47583  53.0514 157.1934 0000885  80.5856 279.5233 15.06407244203728
STARLINK-1989           
1 47585U 21009AP  24289.02038045 -.00000258  00000+0  15466-5 0  9990
2 47585  53.0535 154.0997 0001526  88.2168 271.8996 15.06386627204433
STARLINK-1990           
1 47586U 21009AQ  24289.00380108  .00001100  00000+0  92733-4 0  9996
2 47586  53.0536 174.1819 0001526 104.6763 255.4395 15.06389261204152
STARLINK-1991           
1 47587U 21009AR  24288.60111033  .00002778  00000+0  20526-3 0  9993
2 47587  53.0533 145.9827 0001454  90.5298 269.5857 15.06404539203908
STARLINK-1993           
1 47588U 21009AS  24288.52644662 -.00002189  00000+0 -12815-3 0  9994
2 47588  53.0529 156.3197 0001254 116.0349 244.0769 15.06392585203759
STARLINK-1994           
1 47589U 21009AT  24289.00932208  .00011451  00000+0  78677-3 0  9993
2 47589  53.0523 154.1534 0001660  90.3054 269.8125 15.06380554204433
STARLINK-1995           
1 47590U 21009AU  24289.00010487  .00021221  00000+0  14400-2 0  9990
2 47590  53.0527 174.1940 0001342  93.7385 266.3758 15.06381356204146
STARLINK-1996           
1 47591U 21009AV  24288.34216071  .00001691  00000+0  13243-3 0  9998
2 47591  53.0524 157.1462 0001143 109.4010 250.7103 15.06393219203728
STARLINK-1997           
1 47592U 21009AW  24288.97062319  .00009895  00000+0  68236-3 0  9998
2 47592  53.0543 174.3242 0001385 117.9243 242.1887 15.06394802204147
STARLINK-1998           
1 47593U 21009AX  24289.00749093  .00008104  00000+0  56205-3 0  9990
2 47593  53.0526 174.1593 0000801  86.3289 273.7791 15.06417177204153
STARLINK-1999           
1 47594U 21009AY  24289.25001157  .00764950  00000+0  27647-1 0  9994
2 47594  53.0517 172.0168 0001113  92.2661 147.3609 15.25501813204196
STARLINK-2000           
1 47595U 21009AZ  24288.09704525  .00010113  00000+0  69633-3 0  9993
2 47595  53.0536 178.2475 0001456  93.2887 266.8268 15.06426290204000
STARLINK-2001           
1 47596U 21009BA  24287.96804122  .00014431  00000+0  98509-3 0  9994
2 47596  53.0531 178.8277 0001458  76.8157 283.2995 15.06424488203388
STARLINK-2002           
1 47597U 21009BB  24289.15491729  .00004624  00000+0  32915-3 0  9995
2 47597  53.0533 173.4985 0001514  88.1678 271.9484 15.06397748204178
STARLINK-2003           
1 47598U 21009BC  24289.03235313 -.00002077  00000+0 -12059-3 0  9997
2 47598  53.0530 144.0462 0001418  96.5757 263.5393 15.06394268204589
STARLINK-2005           
1 47600U 21009BE  24288.91667824  .00010810  00000+0  63631-3 0  9997
2 47600  53.0521 134.3501 0001292  96.2173   9.5305 15.12128461  5844
STARLINK-2006           
1 47601U 21009BF  24288.29609387  .00006608  00000+0  46187-3 0  9996
2 47601  53.0517 137.3511 0001500  88.4560 271.6601 15.06417316203999
STARLINK-2007           
1 47602U 21009BG  24288.61375452  .00046161  00000+0  19006-2 0  9993
2 47602  53.0502 138.5765 0009463 168.2869 191.8349 15.23653813204001
STARLINK-2008           
1 47603U 21009BH  24288.99274162  .00002822  00000+0  20845-3 0  9991
2 47603  53.0543 174.2244 0001225  68.0955 292.0164 15.06370114204142
STARLINK-2021           
1 47604U 21009BJ  24288.59001844  .00004410  00000+0  31455-3 0  9997
2 47604  53.0520 146.0341 0001429  88.4362 271.6791 15.06425951203909
STARLINK-2024           
1 47606U 21009BL  24288.32833327  .00000537  00000+0  54929-4 0  9997
2 47606  53.0541 147.2092 0001538  92.0714 268.0452 15.06401602203869
STARLINK-2025           
1 47607U 21009BM  24288.60242808  .00000146  00000+0  28714-4 0  9996
2 47607  53.0504 140.7785 0001725  76.7260 283.3921 15.06391147204571
STARLINK-1528           
1 47620U 21012A   24289.18531537  .00002702  00000+0  20024-3 0  9994
2 47620  53.0536 203.3593 0001203 104.2808 255.8315 15.06398285202524
STARLINK-1609           
1 47621U 21012B   24288.97891441  .00012486  00000+0  85580-3 0  9992
2 47621  53.0545 204.2848 0001777 127.6311 232.4839 15.06392170202497
STARLINK-1645           
1 47622U 21012C   24289.17332892  .00037629  00000+0  25321-2 0  9998
2 47622  53.0542 203.4076 0001349  84.6224 275.4919 15.06393458202529
STARLINK-1655           
1 47623U 21012D   24288.58867175  .00007356  00000+0  51223-3 0  9995
2 47623  53.0531 141.0391 0001585  95.9161 264.2009 15.06397674203354
STARLINK-1669           
1 47624U 21012E   24289.11344825  .00004823  00000+0  34249-3 0  9993
2 47624  53.0540 183.6840 0001343 110.8605 249.2528 15.06396134202794
STARLINK-1704           
1 47625U 21012F   24289.04800336  .00019722  00000+0  13396-2 0  9993
2 47625  53.0546 203.9703 0001389  90.0241 270.0907 15.06389242202504
STARLINK-1761           
1 47626U 21012G   24289.16689571  .00037857  00000+0  25476-2 0  9994
2 47626  53.0538 203.4469 0001332  94.5864 265.5278 15.06388119202522
STARLINK-1972           
1 47627U 21012H   24288.51401800  .00002242  00000+0  16938-3 0  9994
2 47627  53.0537 111.3713 0001596  91.2830 268.8342 15.06401350203746
STARLINK-1973           
1 47628U 21012J   24289.20280809  .00038496  00000+0  25902-2 0  9996
2 47628  53.0546 203.2753 0001421  74.9889 285.1257 15.06386040202521
STARLINK-1974           
1 47629U 21012K   24288.85357969  .00011242  00000+0  77187-3 0  9992
2 47629  53.0532  84.8467 0001614  92.1882 267.9292 15.06424532204158
STARLINK-1983           
1 47630U 21012L   24289.01025641  .00013858  00000+0  94790-3 0  9996
2 47630  53.0551 184.2416 0001404 106.1132 254.0012 15.06381092202777
STARLINK-1992           
1 47632U 21012N   24288.53887896  .00001826  00000+0  14144-3 0  9999
2 47632  53.0532 111.2565 0001368  84.2132 275.9013 15.06393925204254
STARLINK-2009           
1 47633U 21012P   24288.91667824  .00118876  00000+0  72709-2 0  9993
2 47633  53.0529 204.4946 0001108 112.8845  87.3846 15.09296319  5553
STARLINK-2010           
1 47634U 21012Q   24288.79829914 -.00004334  00000+0 -27227-3 0  9991
2 47634  53.0545 205.0922 0001436  93.4624 266.6529 15.06396430202973
STARLINK-2012           
1 47635U 21012R   24288.22653216 -.00002490  00000+0 -14837-3 0  9994
2 47635  53.0542 112.6622 0001458  94.2808 265.8348 15.06387321204227
STARLINK-2013           
1 47636U 21012S   24289.25001157  .00430567  00000+0  24945-1 0  9997
2 47636  53.0538 183.0012 0001155  98.8494 299.9944 15.09595858202815
STARLINK-2014           
1 47637U 21012T   24289.02129653 -.00003204  00000+0 -19631-3 0  9999
2 47637  53.0538 184.0948 0001547  94.5774 265.5392 15.06397793202781
STARLINK-2015           
1 47638U 21012U   24288.22284082 -.00002533  00000+0 -15122-3 0  9994
2 47638  53.0549 112.6789 0001455  96.5858 263.5297 15.06396143204206
STARLINK-2016           
1 47639U 21012V   24289.13188258 -.00000273  00000+0  58346-6 0  9990
2 47639  53.0535 183.6029 0001804  83.6342 276.4853 15.06391241202797
STARLINK-2018           
1 47640U 21012W   24288.79461204 -.00006175  00000+0 -39609-3 0  9994
2 47640  53.0542 205.1130 0001657  88.0927 272.0252 15.06389596202980
